[Satellite]
VERSION=1.1
NAME=XM-4 (BLUES)
NICKNAME=XM-4 (BLUES)
TLE1=1 29520U 06049A   17186.16983411 -.00000027  00000-0  00000-0 0  9993
TLE2=2 29520   0.0046 128.3969 0000266 296.9171 163.8465  1.00273312 18705
